{
  "type": "FeatureCollection",
  "features": [
    {
      "type": "Feature",
      "properties": {
        "norad_id": 36453,
        "name": "COSMOS 2251 DEB",
        "group": "cosmos-2251-debris",
        "lat": 64.13971862639242,
        "lon": 161.13719054959523,
        "alt_km": 674.8951660401999,
        "timestamp": "2025-12-27T08:36:18.781970+00:00",
        "meta_object_name": "COSMOS 2251 DEB",
        "meta_object_id": "1993-036BBC",
        "meta_epoch": "2025-12-27T02:28:26.944032",
        "meta_mean_motion": 14.52707209,
        "meta_eccentricity": 0.0070761,
        "meta_inclination": 73.9237,
        "meta_ra_of_asc_node": 125.114,
        "meta_arg_of_pericenter": 24.4373,
        "meta_mean_anomaly": 149.0425,
        "meta_ephemeris_type": 0,
        "meta_classification_type": "U",
        "meta_norad_cat_id": 36453,
        "meta_element_set_no": 999,
        "meta_rev_at_epoch": 84676,
        "meta_bstar": 0.001034,
        "meta_mean_motion_dot": 4.355e-05,
        "meta_mean_motion_ddot": 0,
        "tle_line1": "1 36453U 93036BBC 25361.10308963  .00004355  00000+0  10340-2 0  9995",
        "tle_line2": "2 36453  73.9237 125.1140 0070761  24.4373 149.0425 14.52707209846765"
      },
      "geometry": {
        "type": "Point",
        "coordinates": [
          161.13719054959523,
          64.13971862639242
        ]
      }
    },
    {
      "type": "Feature",
      "properties": {
        "norad_id": 36459,
        "name": "COSMOS 2251 DEB",
        "group": "cosmos-2251-debris",
        "lat": 46.38748205623993,
        "lon": -9.140204832303404,
        "alt_km": 720.9682031801649,
        "timestamp": "2025-12-27T08:36:18.781980+00:00",
        "meta_object_name": "COSMOS 2251 DEB",
        "meta_object_id": "1993-036BBJ",
        "meta_epoch": "2025-12-20T06:23:01.272480",
        "meta_mean_motion": 14.26454896,
        "meta_eccentricity": 0.0113312,
        "meta_inclination": 74.0464,
        "meta_ra_of_asc_node": 346.1968,
        "meta_arg_of_pericenter": 79.9168,
        "meta_mean_anomaly": 281.4741,
        "meta_ephemeris_type": 0,
        "meta_classification_type": "U",
        "meta_norad_cat_id": 36459,
        "meta_element_set_no": 999,
        "meta_rev_at_epoch": 7989,
        "meta_bstar": 0.00092616994,
        "meta_mean_motion_dot": 2.362e-05,
        "meta_mean_motion_ddot": 0,
        "tle_line1": "1 36459U 93036BBJ 25354.26598695  .00002362  00000+0  92617-3 0  9997",
        "tle_line2": "2 36459  74.0464 346.1968 0113312  79.9168 281.4741 14.26454896 79891"
      },
      "geometry": {
        "type": "Point",
        "coordinates": [
          -9.140204832303404,
          46.38748205623993
        ]
      }
    },
    {
      "type": "Feature",
      "properties": {
        "norad_id": 36470,
        "name": "COSMOS 2251 DEB",
        "group": "cosmos-2251-debris",
        "lat": 55.605097752894565,
        "lon": -110.97038746798822,
        "alt_km": 518.9306557548161,
        "timestamp": "2025-12-27T08:36:18.781990+00:00",
        "meta_object_name": "COSMOS 2251 DEB",
        "meta_object_id": "1993-036BBV",
        "meta_epoch": "2025-12-26T21:12:15.465312",
        "meta_mean_motion": 15.08626133,
        "meta_eccentricity": 0.0022915,
        "meta_inclination": 73.8425,
        "meta_ra_of_asc_node": 224.9633,
        "meta_arg_of_pericenter": 51.4821,
        "meta_mean_anomaly": 308.8419,
        "meta_ephemeris_type": 0,
        "meta_classification_type": "U",
        "meta_norad_cat_id": 36470,
        "meta_element_set_no": 999,
        "meta_rev_at_epoch": 66307,
        "meta_bstar": 0.0034896,
        "meta_mean_motion_dot": 0.0005534,
        "meta_mean_motion_ddot": 0,
        "tle_line1": "1 36470U 93036BBV 25360.88351233  .00055340  00000+0  34896-2 0  9998",
        "tle_line2": "2 36470  73.8425 224.9633 0022915  51.4821 308.8419 15.08626133663070"
      },
      "geometry": {
        "type": "Point",
        "coordinates": [
          -110.97038746798822,
          55.605097752894565
        ]
      }
    },
    {
      "type": "Feature",
      "properties": {
        "norad_id": 36528,
        "name": "COSMOS 2251 DEB",
        "group": "cosmos-2251-debris",
        "lat": 23.5143746698805,
        "lon": 125.74310467652042,
        "alt_km": 834.5133529779769,
        "timestamp": "2025-12-27T08:36:18.782000+00:00",
        "meta_object_name": "COSMOS 2251 DEB",
        "meta_object_id": "1993-036BCN",
        "meta_epoch": "2025-12-27T01:46:36.057216",
        "meta_mean_motion": 14.30726702,
        "meta_eccentricity": 0.0083786,
        "meta_inclination": 74.0183,
        "meta_ra_of_asc_node": 119.0982,
        "meta_arg_of_pericenter": 165.6268,
        "meta_mean_anomaly": 194.7295,
        "meta_ephemeris_type": 0,
        "meta_classification_type": "U",
        "meta_norad_cat_id": 36528,
        "meta_element_set_no": 999,
        "meta_rev_at_epoch": 64632,
        "meta_bstar": 0.0013259,
        "meta_mean_motion_dot": 3.581e-05,
        "meta_mean_motion_ddot": 0,
        "tle_line1": "1 36528U 93036BCN 25361.07402844  .00003581  00000+0  13259-2 0  9999",
        "tle_line2": "2 36528  74.0183 119.0982 0083786 165.6268 194.7295 14.30726702646325"
      },
      "geometry": {
        "type": "Point",
        "coordinates": [
          125.74310467652042,
          23.5143746698805
        ]
      }
    },
    {
      "type": "Feature",
      "properties": {
        "norad_id": 36533,
        "name": "COSMOS 2251 DEB",
        "group": "cosmos-2251-debris",
        "lat": 64.58170846373336,
        "lon": -129.76337800365968,
        "alt_km": 738.7601791798616,
        "timestamp": "2025-12-27T08:36:18.782010+00:00",
        "meta_object_name": "COSMOS 2251 DEB",
        "meta_object_id": "1993-036BCT",
        "meta_epoch": "2025-12-24T23:47:29.202144",
        "meta_mean_motion": 14.49859831,
        "meta_eccentricity": 0.00492005,
        "meta_inclination": 74.0122,
        "meta_ra_of_asc_node": 91.7921,
        "meta_arg_of_pericenter": 238.8301,
        "meta_mean_anomaly": 120.8031,
        "meta_ephemeris_type": 0,
        "meta_classification_type": "U",
        "meta_norad_cat_id": 36533,
        "meta_element_set_no": 999,
        "meta_rev_at_epoch": 84662,
        "meta_bstar": 0.00052465602,
        "meta_mean_motion_dot": 2.029e-05,
        "meta_mean_motion_ddot": 0,
        "tle_line1": "1 36533U 93036BCT 25358.99131021  .00002029  00000+0  52466-3 0  9998",
        "tle_line2": "2 36533  74.0122  91.7921 0049200 238.8301 120.8031 14.49859831846620"
      },
      "geometry": {
        "type": "Point",
        "coordinates": [
          -129.76337800365968,
          64.58170846373336
        ]
      }
    },
    {
      "type": "Feature",
      "properties": {
        "norad_id": 36539,
        "name": "COSMOS 2251 DEB",
        "group": "cosmos-2251-debris",
        "lat": 73.97546550811268,
        "lon": 121.34842708989622,
        "alt_km": 683.9325730203545,
        "timestamp": "2025-12-27T08:36:18.782020+00:00",
        "meta_object_name": "COSMOS 2251 DEB",
        "meta_object_id": "1993-036BCZ",
        "meta_epoch": "2025-12-27T03:15:09.518976",
        "meta_mean_motion": 14.59388026,
        "meta_eccentricity": 0.00262,
        "meta_inclination": 74.0236,
        "meta_ra_of_asc_node": 27.7158,
        "meta_arg_of_pericenter": 169.9457,
        "meta_mean_anomaly": 190.2238,
        "meta_ephemeris_type": 0,
        "meta_classification_type": "U",
        "meta_norad_cat_id": 36539,
        "meta_element_set_no": 999,
        "meta_rev_at_epoch": 84157,
        "meta_bstar": 0.0007319,
        "meta_mean_motion_dot": 3.454e-05,
        "meta_mean_motion_ddot": 0,
        "tle_line1": "1 36539U 93036BCZ 25361.13552684  .00003454  00000+0  73190-3 0  9996",
        "tle_line2": "2 36539  74.0236  27.7158 0026200 169.9457 190.2238 14.59388026841577"
      },
      "geometry": {
        "type": "Point",
        "coordinates": [
          121.34842708989622,
          73.97546550811268
        ]
      }
    },
    {
      "type": "Feature",
      "properties": {
        "norad_id": 36540,
        "name": "COSMOS 2251 DEB",
        "group": "cosmos-2251-debris",
        "lat": 11.04659072866184,
        "lon": 155.87862952479122,
        "alt_km": 707.4692720735293,
        "timestamp": "2025-12-27T08:36:18.782030+00:00",
        "meta_object_name": "COSMOS 2251 DEB",
        "meta_object_id": "1993-036BDA",
        "meta_epoch": "2025-12-27T03:36:51.803712",
        "meta_mean_motion": 14.58631431,
        "meta_eccentricity": 0.0014506,
        "meta_inclination": 74.0284,
        "meta_ra_of_asc_node": 153.0694,
        "meta_arg_of_pericenter": 223.0902,
        "meta_mean_anomaly": 136.9128,
        "meta_ephemeris_type": 0,
        "meta_classification_type": "U",
        "meta_norad_cat_id": 36540,
        "meta_element_set_no": 999,
        "meta_rev_at_epoch": 86220,
        "meta_bstar": 0.001607,
        "meta_mean_motion_dot": 7.475e-05,
        "meta_mean_motion_ddot": 0,
        "tle_line1": "1 36540U 93036BDA 25361.15059958  .00007475  00000+0  16070-2 0  9996",
        "tle_line2": "2 36540  74.0284 153.0694 0014506 223.0902 136.9128 14.58631431862201"
      },
      "geometry": {
        "type": "Point",
        "coordinates": [
          155.87862952479122,
          11.04659072866184
        ]
      }
    }
  ]
}